[
    {
        "OBJECT_NAME": "SL-3 R/B",
        "OBJECT_ID": "1983-010B",
        "EPOCH": "2026-06-20T05:22:21.905760",
        "MEAN_MOTION": 15.49310432,
        "ECCENTRICITY": 0.0015294,
        "INCLINATION": 81.1007,
        "RA_OF_ASC_NODE": 236.2255,
        "ARG_OF_PERICENTER": 52.2916,
        "MEAN_ANOMALY": 307.9714,
        "EPHEMERIS_TYPE": 0,
        "CLASSIFICATION_TYPE": "U",
        "NORAD_CAT_ID": 13819,
        "ELEMENT_SET_NO": 999,
        "REV_AT_EPOCH": 37380,
        "BSTAR": 0.00020746,
        "MEAN_MOTION_DOT": 0.00011434,
        "MEAN_MOTION_DDOT": 0
    },
    {
        "OBJECT_NAME": "SL-3 R/B",
        "OBJECT_ID": "1983-075B",
        "EPOCH": "2026-06-20T10:43:13.693728",
        "MEAN_MOTION": 15.40541433,
        "ECCENTRICITY": 0.0019624,
        "INCLINATION": 97.6107,
        "RA_OF_ASC_NODE": 180.0842,
        "ARG_OF_PERICENTER": 216.5803,
        "MEAN_ANOMALY": 143.4104,
        "EPHEMERIS_TYPE": 0,
        "CLASSIFICATION_TYPE": "U",
        "NORAD_CAT_ID": 14208,
        "ELEMENT_SET_NO": 999,
        "REV_AT_EPOCH": 34596,
        "BSTAR": 0.00019656,
        "MEAN_MOTION_DOT": 7.944e-05,
        "MEAN_MOTION_DDOT": 0
    },
    {
        "OBJECT_NAME": "COSMOS 1536",
        "OBJECT_ID": "1984-013A",
        "EPOCH": "2026-06-20T01:11:03.453792",
        "MEAN_MOTION": 15.25076395,
        "ECCENTRICITY": 0.0012583,
        "INCLINATION": 82.5443,
        "RA_OF_ASC_NODE": 5.9936,
        "ARG_OF_PERICENTER": 284.0426,
        "MEAN_ANOMALY": 75.9412,
        "EPHEMERIS_TYPE": 0,
        "CLASSIFICATION_TYPE": "U",
        "NORAD_CAT_ID": 14699,
        "ELEMENT_SET_NO": 999,
        "REV_AT_EPOCH": 28821,
        "BSTAR": 0.00017893073,
        "MEAN_MOTION_DOT": 4.515e-05,
        "MEAN_MOTION_DDOT": 0
    },
    {
        "OBJECT_NAME": "SL-14 R/B",
        "OBJECT_ID": "1984-027B",
        "EPOCH": "2026-06-20T10:43:37.462368",
        "MEAN_MOTION": 14.86061732,
        "ECCENTRICITY": 0.0017847,
        "INCLINATION": 82.5412,
        "RA_OF_ASC_NODE": 148.6601,
        "ARG_OF_PERICENTER": 358.5562,
        "MEAN_ANOMALY": 1.56,
        "EPHEMERIS_TYPE": 0,
        "CLASSIFICATION_TYPE": "U",
        "NORAD_CAT_ID": 14820,
        "ELEMENT_SET_NO": 999,
        "REV_AT_EPOCH": 26289,
        "BSTAR": 3.5086e-05,
        "MEAN_MOTION_DOT": 3.32e-06,
        "MEAN_MOTION_DDOT": 0
    },
    {
        "OBJECT_NAME": "SL-8 R/B",
        "OBJECT_ID": "1985-006B",
        "EPOCH": "2026-06-20T03:55:56.627040",
        "MEAN_MOTION": 14.37836124,
        "ECCENTRICITY": 0.00189367,
        "INCLINATION": 74.046,
        "RA_OF_ASC_NODE": 72.5867,
        "ARG_OF_PERICENTER": 319.2357,
        "MEAN_ANOMALY": 191.2299,
        "EPHEMERIS_TYPE": 0,
        "CLASSIFICATION_TYPE": "U",
        "NORAD_CAT_ID": 15483,
        "ELEMENT_SET_NO": 999,
        "REV_AT_EPOCH": 16875,
        "BSTAR": 5.9355072e-05,
        "MEAN_MOTION_DOT": 1.53e-06,
        "MEAN_MOTION_DDOT": 0
    },
    {
        "OBJECT_NAME": "SL-12 R/B(2)",
        "OBJECT_ID": "1985-042D",
        "EPOCH": "2026-06-20T11:00:16.737984",
        "MEAN_MOTION": 14.22006533,
        "ECCENTRICITY": 0.0036472,
        "INCLINATION": 71.1073,
        "RA_OF_ASC_NODE": 230.605,
        "ARG_OF_PERICENTER": 322.8141,
        "MEAN_ANOMALY": 47.9872,
        "EPHEMERIS_TYPE": 0,
        "CLASSIFICATION_TYPE": "U",
        "NORAD_CAT_ID": 15772,
        "ELEMENT_SET_NO": 999,
        "REV_AT_EPOCH": 12900,
        "BSTAR": 5.2818e-06,
        "MEAN_MOTION_DOT": -3.6e-07,
        "MEAN_MOTION_DDOT": 0
    },
    {
        "OBJECT_NAME": "SL-14 R/B",
        "OBJECT_ID": "1985-069B",
        "EPOCH": "2026-06-20T09:36:19.713024",
        "MEAN_MOTION": 14.86517548,
        "ECCENTRICITY": 0.0018027,
        "INCLINATION": 82.5273,
        "RA_OF_ASC_NODE": 288.344,
        "ARG_OF_PERICENTER": 207.9505,
        "MEAN_ANOMALY": 152.0745,
        "EPHEMERIS_TYPE": 0,
        "CLASSIFICATION_TYPE": "U",
        "NORAD_CAT_ID": 15945,
        "ELEMENT_SET_NO": 999,
        "REV_AT_EPOCH": 18809,
        "BSTAR": 3.645e-05,
        "MEAN_MOTION_DOT": 3.48e-06,
        "MEAN_MOTION_DDOT": 0
    },
    {
        "OBJECT_NAME": "SL-16 R/B",
        "OBJECT_ID": "1985-097B",
        "EPOCH": "2026-06-20T10:42:31.228992",
        "MEAN_MOTION": 14.16610381,
        "ECCENTRICITY": 0.00054,
        "INCLINATION": 71.0034,
        "RA_OF_ASC_NODE": 284.2165,
        "ARG_OF_PERICENTER": 104.2894,
        "MEAN_ANOMALY": 322.2106,
        "EPHEMERIS_TYPE": 0,
        "CLASSIFICATION_TYPE": "U",
        "NORAD_CAT_ID": 16182,
        "ELEMENT_SET_NO": 999,
        "REV_AT_EPOCH": 10178,
        "BSTAR": 7.6015e-05,
        "MEAN_MOTION_DOT": 1.04e-06,
        "MEAN_MOTION_DDOT": 0
    },
    {
        "OBJECT_NAME": "SL-14 R/B",
        "OBJECT_ID": "1986-006B",
        "EPOCH": "2026-06-20T09:59:20.609664",
        "MEAN_MOTION": 14.86948223,
        "ECCENTRICITY": 0.0074815,
        "INCLINATION": 82.5261,
        "RA_OF_ASC_NODE": 163.0745,
        "ARG_OF_PERICENTER": 292.5669,
        "MEAN_ANOMALY": 66.7643,
        "EPHEMERIS_TYPE": 0,
        "CLASSIFICATION_TYPE": "U",
        "NORAD_CAT_ID": 16496,
        "ELEMENT_SET_NO": 999,
        "REV_AT_EPOCH": 16447,
        "BSTAR": 4.1441e-05,
        "MEAN_MOTION_DOT": 4.15e-06,
        "MEAN_MOTION_DDOT": 0
    },
    {
        "OBJECT_NAME": "COSMOS 1743",
        "OBJECT_ID": "1986-034A",
        "EPOCH": "2026-06-20T09:40:54.185952",
        "MEAN_MOTION": 15.67204069,
        "ECCENTRICITY": 0.0004125,
        "INCLINATION": 82.528,
        "RA_OF_ASC_NODE": 325.3117,
        "ARG_OF_PERICENTER": 257.8396,
        "MEAN_ANOMALY": 102.2402,
        "EPHEMERIS_TYPE": 0,
        "CLASSIFICATION_TYPE": "U",
        "NORAD_CAT_ID": 16719,
        "ELEMENT_SET_NO": 999,
        "REV_AT_EPOCH": 19629,
        "BSTAR": 0.00040137,
        "MEAN_MOTION_DOT": 0.00043156,
        "MEAN_MOTION_DDOT": 0
    },
    {
        "OBJECT_NAME": "SL-14 R/B",
        "OBJECT_ID": "1986-046B",
        "EPOCH": "2026-06-20T10:52:27.820128",
        "MEAN_MOTION": 14.85672833,
        "ECCENTRICITY": 0.0021679,
        "INCLINATION": 82.4818,
        "RA_OF_ASC_NODE": 343.0889,
        "ARG_OF_PERICENTER": 246.8824,
        "MEAN_ANOMALY": 113.0107,
        "EPHEMERIS_TYPE": 0,
        "CLASSIFICATION_TYPE": "U",
        "NORAD_CAT_ID": 16792,
        "ELEMENT_SET_NO": 999,
        "REV_AT_EPOCH": 14166,
        "BSTAR": 3.1804e-05,
        "MEAN_MOTION_DOT": 3.01e-06,
        "MEAN_MOTION_DDOT": 0
    },
    {
        "OBJECT_NAME": "SL-14 R/B",
        "OBJECT_ID": "1986-055B",
        "EPOCH": "2026-06-20T01:24:55.861632",
        "MEAN_MOTION": 14.85724754,
        "ECCENTRICITY": 0.0018788,
        "INCLINATION": 82.5202,
        "RA_OF_ASC_NODE": 30.4328,
        "ARG_OF_PERICENTER": 358.2644,
        "MEAN_ANOMALY": 158.1303,
        "EPHEMERIS_TYPE": 0,
        "CLASSIFICATION_TYPE": "U",
        "NORAD_CAT_ID": 16882,
        "ELEMENT_SET_NO": 999,
        "REV_AT_EPOCH": 13456,
        "BSTAR": 3.0564138e-05,
        "MEAN_MOTION_DOT": 2.9e-06,
        "MEAN_MOTION_DDOT": 0
    },
    {
        "OBJECT_NAME": "AJISAI (EGS)",
        "OBJECT_ID": "1986-061A",
        "EPOCH": "2026-06-20T10:22:54.354720",
        "MEAN_MOTION": 12.44516761,
        "ECCENTRICITY": 0.0011194,
        "INCLINATION": 50.007,
        "RA_OF_ASC_NODE": 137.4149,
        "ARG_OF_PERICENTER": 188.8064,
        "MEAN_ANOMALY": 260.9104,
        "EPHEMERIS_TYPE": 0,
        "CLASSIFICATION_TYPE": "U",
        "NORAD_CAT_ID": 16908,
        "ELEMENT_SET_NO": 999,
        "REV_AT_EPOCH": 48079,
        "BSTAR": -1.8933e-05,
        "MEAN_MOTION_DOT": -1e-06,
        "MEAN_MOTION_DDOT": 0
    }
]